ATLAS CENTAUR R/B       
1 06155U 72065B   26061.46376344  .00001728  00000+0  23839-3 0  9994
2 06155  35.0029 348.0992 0034291 308.4806  51.2821 14.77663257840190
SL-8 R/B                
1 08459U 75112B   26061.96449865  .00000255  00000+0  92557-4 0  9991
2 08459  74.0614  31.2826 0014588 127.2549 232.9939 14.38198824630901
SL-3 R/B                
1 10114U 77057B   26061.92012402  .00014763  00000+0  31189-3 0  9993
2 10114  97.5756 233.5445 0006448 313.2835  46.7875 15.45264007667281
SEASAT 1                
1 10967U 78064A   26061.92474183  .00000279  00000+0  11653-3 0  9997
2 10967 108.0126 111.3041 0002156 288.2551  71.8360 14.46154087505532
SL-14 R/B               
1 11267U 79011B   26061.60519078  .00000660  00000+0  62542-4 0  9990
2 11267  82.5216 103.2948 0017629  82.2454 278.0767 14.91898251527728
SL-8 R/B                
1 11574U 79089B   26061.53211795  .00000285  00000+0  94139-4 0  9993
2 11574  74.0673 104.2945 0017104 277.6823  82.2391 14.42345054435076
SL-14 R/B               
1 11672U 80005B   26061.74778224  .00000710  00000+0  69342-4 0  9991
2 11672  82.5157 313.8205 0015567 180.9466 179.1727 14.90920563475455
SL-8 R/B                
1 12139U 81003B   26061.71503018  .00019842  00000+0  51315-3 0  9999
2 12139  82.9395 296.4730 0262736 202.8613 156.0754 15.10656978313624
SL-3 R/B                
1 12465U 81046B   26061.90548648  .00014036  00000+0  32844-3 0  9993
2 12465  81.2313 297.8903 0020138  45.1880 315.0995 15.41783340437389
SL-3 R/B                
1 12904U 81103B   26061.93195473  .00006594  00000+0  29336-3 0  9994
2 12904  81.1568 221.3591 0012566 311.3173  48.6976 15.21272937972208
SL-3 R/B                
1 13068U 82013B   26061.87712885  .00005343  00000+0  23187-3 0  9991
2 13068  81.1771 168.7531 0022301 200.6456 159.3877 15.21930194403313
SL-3 R/B                
1 13154U 82039B   26061.89800545  .00003136  00000+0  18952-3 0  9990
2 13154  81.1580 223.7921 0029883 346.5966  13.4462 15.10031658380612
